ONEWEB-0128             
1 47274U 20100S   25052.58432799 -.00002549  00000+0 -71209-2 0  9990
2 47274  87.8820  86.3696 0002240  95.5158 264.6226 13.12449693201708
ONEWEB-0129             
1 47275U 20100T   25052.56326608 -.00000136  00000+0 -41374-3 0  9991
2 47275  87.8812  86.3252 0002430  64.2748 295.8631 13.12441099201637
ONEWEB-0130             
1 47276U 20100U   25052.59082420 -.00000161  00000+0 -48359-3 0  9994
2 47276  87.8811  86.3227 0002024  93.5207 266.6153 13.12440764201603
ONEWEB-0131             
1 47277U 20100V   25052.58759269 -.00000268  00000+0 -77937-3 0  9998
2 47277  87.8814  86.3459 0001998  96.8079 263.3276 13.12441951201649
ONEWEB-0132             
1 47278U 20100W   25052.61680034  .00000449  00000+0  12115-2 0  9991
2 47278  87.8813  86.3417 0001863 101.6884 258.4454 13.12441483201545
ONEWEB-0133             
1 47279U 20100X   25052.55677884  .00000063  00000+0  14066-3 0  9994
2 47279  87.8808  86.3381 0002000  97.2544 262.8811 13.12441543201696
ONEWEB-0134             
1 47280U 20100Y   25052.60219818  .00000217  00000+0  56664-3 0  9992
2 47280  87.8807  86.3143 0002169  91.9763 268.1614 13.12441928201678
ONEWEB-0135             
1 47281U 20100Z   25052.57299400 -.00000324  00000+0 -93715-3 0  9993
2 47281  87.8812  86.3501 0002400  95.7722 264.3680 13.12441842201696
